{"type": "FeatureCollection", "features": [ {"type": "Feature", "properties": {"norad_id": 66500, "name": "STARLINK-35894", "group": "last-30-days", "lat": 40.873268853672954, "lon": -126.77340814713482, "alt_km": 389.6083227540448, "timestamp": "2025-12-05T22:40:47.341698+00:00", "meta": {"OBJECT_NAME": "STARLINK-35894", "OBJECT_ID": "2025-263R", "EPOCH": "2025-12-05T06:00:02.000160", "MEAN_MOTION": 15.6132269, "ECCENTRICITY": 0.00013094, "INCLINATION": 42.9991, "RA_OF_ASC_NODE": 169.1075, "ARG_OF_PERICENTER": 272.2296, "MEAN_ANOMALY": 215.3375, "EPHEMERIS_TYPE": 0, "CLASSIFICATION_TYPE": "U", "NORAD_CAT_ID": 66500, "ELEMENT_SET_NO": 999, "REV_AT_EPOCH": 443, "BSTAR": -0.033210048, "MEAN_MOTION_DOT": -0.02523154, "MEAN_MOTION_DDOT": 0}, "tle": {"line1": "1 66500U 25263R   25339.25002315 -.02523154  00000+0 -33210-1 0  9998", "line2": "2 66500  42.9991 169.1075 0001309 272.2296 215.3375 15.61322690  4437"}}, "geometry": {"type": "Point", "coordinates": [-126.77340814713482, 40.873268853672954]}}, {"type": "Feature", "properties": {"norad_id": 66501, "name": "STARLINK-35897", "group": "last-30-days", "lat": 42.67729777812469, "lon": -96.76073704052385, "alt_km": 380.8567076982181, "timestamp": "2025-12-05T22:40:47.341709+00:00", "meta": {"OBJECT_NAME": "STARLINK-35897", "OBJECT_ID": "2025-263S", "EPOCH": "2025-12-05T06:00:02.000160", "MEAN_MOTION": 15.63832856, "ECCENTRICITY": 0.00020195, "INCLINATION": 42.9992, "RA_OF_ASC_NODE": 169.0691, "ARG_OF_PERICENTER": 304.3318, "MEAN_ANOMALY": 198.6772, "EPHEMERIS_TYPE": 0, "CLASSIFICATION_TYPE": "U", "NORAD_CAT_ID": 66501, "ELEMENT_SET_NO": 999, "REV_AT_EPOCH": 443, "BSTAR": -0.026237661, "MEAN_MOTION_DOT": -0.02240034, "MEAN_MOTION_DDOT": 0}, "tle": {"line1": "1 66501U 25263S   25339.25002315 -.02240034  00000+0 -26238-1 0  9994", "line2": "2 66501  42.9992 169.0691 0002019 304.3318 198.6772 15.63832856  4439"}}, "geometry": {"type": "Point", "coordinates": [-96.76073704052385, 42.67729777812469]}}, {"type": "Feature", "properties": {"norad_id": 66502, "name": "STARLINK-35922", "group": "last-30-days", "lat": 41.84106803669533, "lon": -89.0107962864082, "alt_km": 380.10667959456714, "timestamp": "2025-12-05T22:40:47.341721+00:00", "meta": {"OBJECT_NAME": "STARLINK-35922", "OBJECT_ID": "2025-263T", "EPOCH": "2025-12-05T06:00:02.000160", "MEAN_MOTION": 15.63873664, "ECCENTRICITY": 0.00013804, "INCLINATION": 42.9992, "RA_OF_ASC_NODE": 169.0546, "ARG_OF_PERICENTER": 267.1799, "MEAN_ANOMALY": 241.244, "EPHEMERIS_TYPE": 0, "CLASSIFICATION_TYPE": "U", "NORAD_CAT_ID": 66502, "ELEMENT_SET_NO": 999, "REV_AT_EPOCH": 443, "BSTAR": -0.024228697, "MEAN_MOTION_DOT": -0.02050349, "MEAN_MOTION_DDOT": 0}, "tle": {"line1": "1 66502U 25263T   25339.25002315 -.02050349  00000+0 -24229-1 0  9991", "line2": "2 66502  42.9992 169.0546 0001380 267.1799 241.2440 15.63873664  4437"}}, "geometry": {"type": "Point", "coordinates": [-89.0107962864082, 41.84106803669533]}}, {"type": "Feature", "properties": {"norad_id": 66503, "name": "STARLINK-35917", "group": "last-30-days", "lat": 41.008626761065436, "lon": -84.02735200049645, "alt_km": 380.312614524134, "timestamp": "2025-12-05T22:40:47.341733+00:00", "meta": {"OBJECT_NAME": "STARLINK-35917", "OBJECT_ID": "2025-263U", "EPOCH": "2025-12-05T06:00:02.000160", "MEAN_MOTION": 15.63880889, "ECCENTRICITY": 0.00014504, "INCLINATION": 42.9994, "RA_OF_ASC_NODE": 169.0453, "ARG_OF_PERICENTER": 270.3996, "MEAN_ANOMALY": 241.8552, "EPHEMERIS_TYPE": 0, "CLASSIFICATION_TYPE": "U", "NORAD_CAT_ID": 66503, "ELEMENT_SET_NO": 999, "REV_AT_EPOCH": 443, "BSTAR": -0.024348596, "MEAN_MOTION_DOT": -0.02059782, "MEAN_MOTION_DDOT": 0}, "tle": {"line1": "1 66503U 25263U   25339.25002315 -.02059782  00000+0 -24349-1 0  9995", "line2": "2 66503  42.9994 169.0453 0001450 270.3996 241.8552 15.63880889  4437"}}, "geometry": {"type": "Point", "coordinates": [-84.02735200049645, 41.008626761065436]}}, {"type": "Feature", "properties": {"norad_id": 66504, "name": "STARLINK-35916", "group": "last-30-days", "lat": 41.03960382675019, "lon": -83.29884437505723, "alt_km": 426.94688329776, "timestamp": "2025-12-05T22:40:47.341744+00:00", "meta": {"OBJECT_NAME": "STARLINK-35916", "OBJECT_ID": "2025-263V", "EPOCH": "2025-12-05T06:00:02.000160", "MEAN_MOTION": 15.47809689, "ECCENTRICITY": 0.00013926, "INCLINATION": 42.9997, "RA_OF_ASC_NODE": 169.8353, "ARG_OF_PERICENTER": 261.0612, "MEAN_ANOMALY": 291.3465, "EPHEMERIS_TYPE": 0, "CLASSIFICATION_TYPE": "U", "NORAD_CAT_ID": 66504, "ELEMENT_SET_NO": 999, "REV_AT_EPOCH": 443, "BSTAR": -0.043472499, "MEAN_MOTION_DOT": -0.02057396, "MEAN_MOTION_DDOT": 0}, "tle": {"line1": "1 66504U 25263V   25339.25002315 -.02057396  00000+0 -43472-1 0  9993", "line2": "2 66504  42.9997 169.8353 0001392 261.0612 291.3465 15.47809689  4439"}}, "geometry": {"type": "Point", "coordinates": [-83.29884437505723, 41.03960382675019]}}, {"type": "Feature", "properties": {"norad_id": 66505, "name": "STARLINK-34766", "group": "last-30-days", "lat": 42.4530080868677, "lon": -94.11672592082424, "alt_km": 380.0432948142152, "timestamp": "2025-12-05T22:40:47.341754+00:00", "meta": {"OBJECT_NAME": "STARLINK-34766", "OBJECT_ID": "2025-263W", "EPOCH": "2025-12-05T06:00:02.000160", "MEAN_MOTION": 15.63880371, "ECCENTRICITY": 0.00013777, "INCLINATION": 42.999, "RA_OF_ASC_NODE": 169.0643, "ARG_OF_PERICENTER": 267.4451, "MEAN_ANOMALY": 237.141, "EPHEMERIS_TYPE": 0, "CLASSIFICATION_TYPE": "U", "NORAD_CAT_ID": 66505, "ELEMENT_SET_NO": 999, "REV_AT_EPOCH": 443, "BSTAR": -0.024330319, "MEAN_MOTION_DOT": -0.02058337, "MEAN_MOTION_DDOT": 0}, "tle": {"line1": "1 66505U 25263W   25339.25002315 -.02058337  00000+0 -24330-1 0  9992", "line2": "2 66505  42.9990 169.0643 0001377 267.4451 237.1410 15.63880371  4434"}}, "geometry": {"type": "Point", "coordinates": [-94.11672592082424, 42.4530080868677]}}, {"type": "Feature", "properties": {"norad_id": 66506, "name": "STARLINK-34765", "group": "last-30-days", "lat": 42.175454912387146, "lon": -91.55075232007592, "alt_km": 380.1353258865138, "timestamp": "2025-12-05T22:40:47.341764+00:00", "meta": {"OBJECT_NAME": "STARLINK-34765", "OBJECT_ID": "2025-263X", "EPOCH": "2025-12-05T06:00:02.000160", "MEAN_MOTION": 15.6388285, "ECCENTRICITY": 0.00014381, "INCLINATION": 42.9991, "RA_OF_ASC_NODE": 169.0601, "ARG_OF_PERICENTER": 270.515, "MEAN_ANOMALY": 235.9856, "EPHEMERIS_TYPE": 0, "CLASSIFICATION_TYPE": "U", "NORAD_CAT_ID": 66506, "ELEMENT_SET_NO": 999, "REV_AT_EPOCH": 443, "BSTAR": -0.024349547, "MEAN_MOTION_DOT": -0.02059984, "MEAN_MOTION_DDOT": 0}, "tle": {"line1": "1 66506U 25263X   25339.25002315 -.02059984  00000+0 -24350-1 0  9994", "line2": "2 66506  42.9991 169.0601 0001438 270.5150 235.9856 15.63882850  4433"}}, "geometry": {"type": "Point", "coordinates": [-91.55075232007592, 42.175454912387146]}}, {"type": "Feature", "properties": {"norad_id": 66507, "name": "STARLINK-34767", "group": "last-30-days", "lat": 41.45206832960593, "lon": -86.50508461008968, "alt_km": 380.25096073322766, "timestamp": "2025-12-05T22:40:47.341774+00:00", "meta": {"OBJECT_NAME": "STARLINK-34767", "OBJECT_ID": "2025-263Y", "EPOCH": "2025-12-05T06:00:02.000160", "MEAN_MOTION": 15.6387498, "ECCENTRICITY": 0.00014632, "INCLINATION": 42.9993, "RA_OF_ASC_NODE": 169.0493, "ARG_OF_PERICENTER": 270.1362, "MEAN_ANOMALY": 240.2066, "EPHEMERIS_TYPE": 0, "CLASSIFICATION_TYPE": "U", "NORAD_CAT_ID": 66507, "ELEMENT_SET_NO": 999, "REV_AT_EPOCH": 443, "BSTAR": -0.024286857, "MEAN_MOTION_DOT": -0.02054808, "MEAN_MOTION_DDOT": 0}, "tle": {"line1": "1 66507U 25263Y   25339.25002315 -.02054808  00000+0 -24287-1 0  9994", "line2": "2 66507  42.9993 169.0493 0001463 270.1362 240.2066 15.63874980  4431"}}, "geometry": {"type": "Point", "coordinates": [-86.50508461008968, 41.45206832960593]}}, {"type": "Feature", "properties": {"norad_id": 66508, "name": "STARLINK-35608", "group": "last-30-days", "lat": 39.965746128289915, "lon": -79.1803877001265, "alt_km": 380.45899386947076, "timestamp": "2025-12-05T22:40:47.341784+00:00", "meta": {"OBJECT_NAME": "STARLINK-35608", "OBJECT_ID": "2025-263Z", "EPOCH": "2025-12-05T06:00:02.000160", "MEAN_MOTION": 15.63879236, "ECCENTRICITY": 0.00014643, "INCLINATION": 42.9996, "RA_OF_ASC_NODE": 169.0359, "ARG_OF_PERICENTER": 269.6969, "MEAN_ANOMALY": 246.3933, "EPHEMERIS_TYPE": 0, "CLASSIFICATION_TYPE": "U", "NORAD_CAT_ID": 66508, "ELEMENT_SET_NO": 999, "REV_AT_EPOCH": 443, "BSTAR": -0.024332033, "MEAN_MOTION_DOT": -0.02058451, "MEAN_MOTION_DDOT": 0}, "tle": {"line1": "1 66508U 25263Z   25339.25002315 -.02058451  00000+0 -24332-1 0  9994", "line2": "2 66508  42.9996 169.0359 0001464 269.6969 246.3933 15.63879236  4432"}}, "geometry": {"type": "Point", "coordinates": [-79.1803877001265, 39.965746128289915]}}, {"type": "Feature", "properties": {"norad_id": 66509, "name": "STARLINK-35598", "group": "last-30-days", "lat": 37.303911298469956, "lon": -69.97356596791657, "alt_km": 380.6681182374441, "timestamp": "2025-12-05T22:40:47.341794+00:00", "meta": {"OBJECT_NAME": "STARLINK-35598", "OBJECT_ID": "2025-263AA", "EPOCH": "2025-12-05T06:00:02.000160", "MEAN_MOTION": 15.63877562, "ECCENTRICITY": 0.0001385, "INCLINATION": 42.9994, "RA_OF_ASC_NODE": 169.0144, "ARG_OF_PERICENTER": 264.3477, "MEAN_ANOMALY": 259.4065, "EPHEMERIS_TYPE": 0, "CLASSIFICATION_TYPE": "U", "NORAD_CAT_ID": 66509, "ELEMENT_SET_NO": 999, "REV_AT_EPOCH": 443, "BSTAR": -0.0242368, "MEAN_MOTION_DOT": -0.0205123, "MEAN_MOTION_DDOT": 0}, "tle": {"line1": "1 66509U 25263AA  25339.25002315 -.02051230  00000+0 -24237-1 0  9997", "line2": "2 66509  42.9994 169.0144 0001385 264.3477 259.4065 15.63877562  4432"}}, "geometry": {"type": "Point", "coordinates": [-69.97356596791657, 37.303911298469956]}}]}